IRIDIUM 39              
1 25042U 97069D   25135.33126043  .00000635  00000+0  16114-3 0  9991
2 25042  86.3947 225.2066 0019714  61.1466 299.1713 14.49183695444207
IRIDIUM 38              
1 25043U 97069E   25135.39667298  .00000458  00000+0  14488-3 0  9995
2 25043  86.3964 246.9434 0002378 145.0195 215.1159 14.38090737441240
IRIDIUM 42              
1 25077U 97077A   25135.36262771  .00000383  00000+0  12440-3 0  9998
2 25077  86.3960 253.0890 0001814 113.8353 246.3034 14.36326778436484
IRIDIUM 44              
1 25078U 97077B   25135.33617630  .00000433  00000+0  13072-3 0  9992
2 25078  86.3980 235.1075 0003855 114.0842 246.0760 14.40216705438978
IRIDIUM 45              
1 25104U 97082A   25135.30937143  .00019068  00000+0  69548-3 0  9992
2 25104  86.3602  63.8410 0122973  94.5918 266.9384 15.21066604447049
IRIDIUM 24              
1 25105U 97082B   25135.35149376  .00000578  00000+0  17002-3 0  9995
2 25105  86.3882  94.2284 0011216 174.9878 185.1437 14.42067157438487
IRIDIUM 51              
1 25262U 98018A   25135.31998886  .00043990  00000+0  10315-2 0  9997
2 25262  86.3850  72.0791 0091774  19.2422 341.2258 15.37499124441978
IRIDIUM 57              
1 25273U 98019B   25135.55814919  .00000337  00000+0  10946-3 0  9999
2 25273  86.3974 158.9304 0002283  93.1008 267.0450 14.35872319420108
